ONEWEB-0612             
1 54675U 22166AK  23251.07349285 -.00000042  00000+0 -13433-3 0  9999
2 54675  87.9165  85.6905 0001447  76.2533 283.8762 13.21827438 38062
ONEWEB-0615             
1 54676U 22166AL  23251.05458108  .00000099  00000+0  20853-3 0  9997
2 54676  87.9175  85.7029 0001467  90.1610 269.9692 13.21824417 38077
ONEWEB-0655             
1 54677U 22166AM  23251.10501649 -.00000002  00000+0 -36819-4 0  9999
2 54677  87.9180  85.7022 0001587  85.9653 274.1662 13.21828018 38075
ONEWEB-0659             
1 54678U 22166AN  23251.04616777  .00000167  00000+0  37177-3 0  9999
2 54678  87.9144  85.7489 0002024  80.7112 279.4250 13.21826340 38159
ONEWEB-0685             
1 54679U 22166AP  23251.04825936  .00000123  00000+0  26587-3 0  9994
2 54679  87.9175  85.7049 0001011 114.6181 245.5059 13.21824262 38044
ONEWEB-0712             
1 54680U 22166AQ  23250.75541659  .00000017  00000+0  71676-5 0  9993
2 54680  87.9346  70.4511 0001726  86.7497 273.3839 13.29378167 38684
ONEWEB-0714             
1 54681U 22166AR  23251.05246966  .00000077  00000+0  15448-3 0  9990
2 54681  87.9169  85.6961 0001463  94.2390 265.8911 13.21825765 38162
ONEWEB-0532             
1 55140U 23004A   23250.38107398  .00000103  00000+0  18890-3 0  9997
2 55140  87.9742 207.2905 0004043 107.1021 253.0561 13.30872347 34065
